H1 CPF  1  HTS 2022 11  4 12  8081 larets           NONE
H2  0304206 5557    27944 2022 11 04  0  0  0 2022 11 09  0  0  0   180 1 1  0 0 0
H5  0.0560 
H9 
10 0 59890   9000.00000  0   -2208970.315    -803624.545    6649434.095
10 0 59890   9180.00000  0   -3449756.336    -591629.084    6122131.081
10 0 59890   9360.00000  0   -4558679.807    -327251.328    5370305.929
10 0 59890   9540.00000  0   -5493969.428     -24112.564    4421296.003
10 0 59890   9720.00000  0   -6220502.647     301719.050    3309765.780
10 0 59890   9900.00000  0   -6711202.446     632507.633    2076463.610
10 0 59890  10080.00000  0   -6948129.290     949732.939     766722.056
10 0 59890  10260.00000  0   -6923204.430    1235032.338    -571249.839
10 0 59890  10440.00000  0   -6638513.494    1471152.008   -1888208.174
10 0 59890  10620.00000  0   -6106172.489    1642854.233   -3135756.473
10 0 59890  10800.00000  0   -5347768.697    1737734.648   -4268185.647
10 0 59890  10980.00000  0   -4393402.805    1746900.350   -5244180.375
10 0 59890  11160.00000  0   -3280403.039    1665478.239   -6028313.887
10 0 59890  11340.00000  0   -2051790.214    1492933.790   -6592285.845
10 0 59890  11520.00000  0    -754566.749    1233190.717   -6915876.118
10 0 59890  11700.00000  0     562095.398     894551.277   -6987593.387
10 0 59890  11880.00000  0    1848696.927     489424.874   -6805027.576
10 0 59890  12060.00000  0    3057241.812      33872.795   -6374908.857
10 0 59890  12240.00000  0    4142998.517    -453017.048   -5712864.071
10 0 59890  12420.00000  0    5066136.859    -949905.331   -4842882.250
10 0 59890  12600.00000  0    5793197.158   -1434102.950   -3796500.310
10 0 59890  12780.00000  0    6298337.845   -1882567.368   -2611712.311
10 0 59890  12960.00000  0    6564304.099   -2272953.104   -1331627.680
10 0 59890  13140.00000  0    6583068.400   -2584668.523      -2917.184
10 0 59890  13320.00000  0    6356106.064   -2799885.854    1325897.215
10 0 59890  13500.00000  0    5894285.280   -2904452.007    2606242.394
10 0 59890  13680.00000  0    5217368.491   -2888651.622    3791304.309
10 0 59890  13860.00000  0    4353151.940   -2747779.798    4837763.629
10 0 59890  14040.00000  0    3336296.743   -2482498.985    5707384.528
10 0 59890  14220.00000  0    2206904.875   -2098965.653    6368402.126
10 0 59890  14400.00000  0    1008911.104   -1608718.555    6796654.761
10 0 59890  14580.00000  0    -211637.716   -1028338.477    6976436.877
10 0 59890  14760.00000  0   -1408351.241    -378889.618    6901053.192
10 0 59890  14940.00000  0   -2536249.952     314838.657    6573067.263
10 0 59890  15120.00000  0   -3553453.822    1025268.421    6004241.014
10 0 59890  15300.00000  0   -4422755.021    1723119.718    5215160.208
10 0 59890  15480.00000  0   -5113022.712    2378612.095    4234543.053
10 0 59890  15660.00000  0   -5600379.979    2962738.534    3098235.485
10 0 59890  15840.00000  0   -5869095.255    3448554.527    1847918.831
10 0 59890  16020.00000  0   -5912146.853    3812423.217     529569.240
10 0 59890  16200.00000  0   -5731419.555    4035148.996    -808280.704
10 0 59890  16380.00000  0   -5337517.299    4102933.796   -2116395.583
10 0 59890  16560.00000  0   -4749199.592    4008105.073   -3346724.245
10 0 59890  16740.00000  0   -3992468.059    3749570.608   -4454222.715
10 0 59890  16920.00000  0   -3099366.589    3332983.038   -5398523.055
10 0 59890  17100.00000  0   -2106571.380    2770616.775   -6145382.696
10 0 59890  17280.00000  0   -1053846.272    2080972.853   -6667875.819
10 0 59890  17460.00000  0      17569.946    1288132.004   -6947293.606
10 0 59890  17640.00000  0    1066570.679     420891.938   -6973742.104
10 0 59890  17820.00000  0    2053734.214    -488279.402   -6746443.880
10 0 59890  18000.00000  0    2942777.440   -1404445.755   -6273737.150
10 0 59890  18180.00000  0    3701864.870   -2291519.748   -5572780.362
10 0 59890  18360.00000  0    4304741.854   -3113660.006   -4668971.788
10 0 59890  18540.00000  0    4731654.947   -3836709.007   -3595081.393
10 0 59890  18720.00000  0    4970019.774   -4429609.046   -2390113.315
10 0 59890  18900.00000  0    5014814.209   -4865740.802   -1097925.933
10 0 59890  19080.00000  0    4868668.802   -5124121.853     234354.015
10 0 59890  19260.00000  0    4541640.065   -5190400.163    1558065.305
10 0 59890  19440.00000  0    4050675.235   -5057584.554    2824820.897
10 0 59890  19620.00000  0    3418793.062   -4726473.460    3988307.968
10 0 59890  19800.00000  0    2674025.934   -4205762.068    5006002.290
10 0 59890  19980.00000  0    1848178.281   -3511821.586    5840725.819
10 0 59890  20160.00000  0     975464.054   -2668166.201    6461990.243
10 0 59890  20340.00000  0      91085.128   -1704633.948    6847081.123
10 0 59890  20520.00000  0    -770185.419    -656320.900    6981856.502
10 0 59890  20700.00000  0   -1575362.252     437696.245    6861250.837
10 0 59890  20880.00000  0   -2294507.545    1535809.336    6489471.069
10 0 59890  21060.00000  0   -2901850.519    2595453.329    5879878.599
10 0 59890  21240.00000  0   -3376729.975    3574758.421    5054556.831
10 0 59890  21420.00000  0   -3704329.260    4434226.008    4043564.579
10 0 59890  21600.00000  0   -3876171.135    5138364.101    2883881.693
10 0 59890  21780.00000  0   -3890344.250    5657208.151    1618068.312
10 0 59890  21960.00000  0   -3751444.303    5967645.043     292682.186
10 0 59890  22140.00000  0   -3470232.749    6054473.972   -1043481.096
10 0 59890  22320.00000  0   -3063023.586    5911139.718   -2341259.071
10 0 59890  22500.00000  0   -2550823.695    5540085.167   -3553007.050
10 0 59890  22680.00000  0   -1958283.192    4952714.462   -4634393.870
10 0 59890  22860.00000  0   -1312522.428    4168979.592   -5546034.794
10 0 59890  23040.00000  0    -641898.277    3216627.132   -6254898.632
10 0 59890  23220.00000  0      25233.162    2130146.579   -6735453.546
10 0 59890  23400.00000  0     661700.997     949471.539   -6970514.907
10 0 59890  23580.00000  0    1242603.198    -281504.521   -6951792.493
10 0 59890  23760.00000  0    1746257.988   -1516551.140   -6680134.937
10 0 59890  23940.00000  0    2154991.691   -2708808.516   -6165473.128
10 0 59890  24120.00000  0    2455746.635   -3812531.525   -5426477.237
10 0 59890  24300.00000  0    2640493.690   -4784831.530   -4489925.362
10 0 59890  24480.00000  0    2706431.947   -5587345.552   -3389782.771
10 0 59890  24660.00000  0    2655968.359   -6187773.474   -2166022.479
10 0 59890  24840.00000  0    2496477.631   -6561221.455    -863206.153
10 0 59890  25020.00000  0    2239847.539   -6691279.108     471134.140
10 0 59890  25200.00000  0    1901826.033   -6570763.943    1788249.694
10 0 59890  25380.00000  0    1501204.765   -6202095.883    3039988.698
10 0 59890  25560.00000  0    1058877.145   -5597272.634    4180589.662
10 0 59890  25740.00000  0     596823.007   -4777455.408    5168370.189
10 0 59890  25920.00000  0     137070.720   -3772191.461    5967249.715
10 0 59890  26100.00000  0    -299311.741   -2618305.692    6548050.260
10 0 59890  26280.00000  0    -693149.517   -1358519.538    6889527.940
10 0 59890  26460.00000  0   -1027981.059     -39862.213    6979120.926
10 0 59890  26640.00000  0   -1290736.801    1288081.426    6813402.796
10 0 59890  26820.00000  0   -1472251.485    2575028.780    6398223.359
10 0 59890  27000.00000  0   -1567592.319    3771902.314    5748534.498
10 0 59890  27180.00000  0   -1576192.449    4832718.045    4887899.774
10 0 59890  27360.00000  0   -1501783.255    5716396.247    3847691.481
10 0 59890  27540.00000  0   -1352126.007    6388419.765    2665982.019
10 0 59890  27720.00000  0   -1138555.293    6822262.245    1386159.134
10 0 59890  27900.00000  0    -875345.524    7000511.263      55305.309
10 0 59890  28080.00000  0    -578932.485    6915618.156   -1277588.293
10 0 59890  28260.00000  0    -267032.804    6570229.269   -2563500.909
10 0 59890  28440.00000  0      42286.860    5977067.094   -3755253.627
10 0 59890  28620.00000  0     331538.699    5158390.873   -4809278.631
10 0 59890  28800.00000  0     584696.643    4145073.754   -5687219.359
10 0 59890  28980.00000  0     787988.297    2975349.192   -6357298.399
10 0 59890  29160.00000  0     930557.061    1693295.116   -6795409.833
10 0 59890  29340.00000  0    1004969.427     347133.608   -6985912.628
10 0 59890  29520.00000  0    1007551.272   -1012586.964   -6922124.105
10 0 59890  29700.00000  0     938543.203   -2334868.721   -6606508.710
10 0 59890  29880.00000  0     802074.284   -3570137.368   -6050571.828
10 0 59890  30060.00000  0     605955.688   -4672072.832   -5274468.743
10 0 59890  30240.00000  0     361300.368   -5599339.366   -4306318.894
10 0 59890  30420.00000  0      81982.698   -6317154.936   -3181242.712
10 0 59890  30600.00000  0    -216043.809   -6798639.866   -1940134.647
10 0 59890  30780.00000  0    -515541.420   -7025882.513    -628204.319
10 0 59890  30960.00000  0    -798860.095   -6990661.984     706671.068
10 0 59890  31140.00000  0   -1048843.592   -6694783.455    2015713.946
10 0 59890  31320.00000  0   -1249723.942   -6150007.160    3251061.402
10 0 59890  31500.00000  0   -1387954.905   -5377566.281    4367548.711
10 0 59890  31680.00000  0   -1452940.540   -4407300.255    5324375.499
10 0 59890  31860.00000  0   -1437626.432   -3276459.945    6086591.518
10 0 59890  32040.00000  0   -1338924.734   -2028236.166    6626353.887
10 0 59890  32220.00000  0   -1157952.142    -710085.650    6923909.558
10 0 59890  32400.00000  0    -900078.488     628077.092    6968292.613
10 0 59890  32580.00000  0    -574781.532    1935764.495    6757720.001
10 0 59890  32760.00000  0    -195304.894    3163816.196    6299677.885
10 0 59890  32940.00000  0     221868.658    4266253.981    5610690.987
10 0 59890  33120.00000  0     657710.133    5202031.670    4715775.664
10 0 59890  33300.00000  0    1091483.094    5936618.070    3647579.818
99
